#aV2015  8 25  0  0  0.00000000     288 DD+AD WGS84 FIT  NGA
## 1859 172800.00000000   300.00000000 57259 0.0000000000000
+   31     1  2  3  4  5  6  7  8  9 11 12 13 14 15 16 17 18
+         19 20 21 22 23 24 25 26 27 28 29 30 31 32  0  0  0
+          0  0  0  0  0  0  0  0  0  0  0  0  0  0  0  0  0
+          0  0  0  0  0  0  0  0  0  0  0  0  0  0  0  0  0
+          0  0  0  0  0  0  0  0  0  0  0  0  0  0  0  0  0
++         2  2  2  2  2  2  2  2  2  2  2  2  2  2  2  2  2
++         2  2  2  2  2  2  2  2  2  2  2  2  2  2  0  0  0
++         0  0  0  0  0  0  0  0  0  0  0  0  0  0  0  0  0
++         0  0  0  0  0  0  0  0  0  0  0  0  0  0  0  0  0
++         0  0  0  0  0  0  0  0  0  0  0  0  0  0  0  0  0
%c cc cc ccc ccc cccc cccc cccc cccc ccccc ccccc ccccc ccccc
%c cc cc ccc ccc cccc cccc cccc cccc ccccc ccccc ccccc ccccc
%f  0.0000000  0.000000000  0.00000000000  0.000000000000000
%f  0.0000000  0.000000000  0.00000000000  0.000000000000000
%i    0    0    0    0      0      0      0      0         0
%i    0    0    0    0      0      0      0      0         0
/*      NGA, ST. LOUIS,MO.                                  
/*   EPHEMERIS COMPUTED FROM  1 DAYS OF DATA                
/*   EPOCHA SMOOTHER                                       
/* CCCCCCCCCCCCCCCCCCCCCCCCCCCCCCCCCCCCCCCCCCCCCCCCCCCCCCCCC
*  2015  8 25 15 55  0.00000000
P  1  13301.432599 -15063.721926  17198.322549     -0.658794                    
V  1    -75.231085  22112.740616  19548.368215      0.006284                    
P  2 -14080.580597  -9893.674942 -19957.622817    585.819701                    
V  2   2253.442359 -26069.839159  10688.247454      0.018697                    
P  3  22544.534952 -13582.355723  -3657.775963     18.420999                    
V  3   5411.621526    531.084576  31253.675880      0.021783                    
P  4  15394.873614  -5127.810930  20643.436822    -13.719834                    
V  4   -694.173836  27130.872311   7399.071171     -0.038668                    
P  5 -22336.776909   -784.630197 -14547.371687   -202.659920                    
V  5  15494.943420 -10070.101502 -23145.352749      0.041661                    
P  6  -8418.393095 -20703.995407 -14362.635678     44.981858                    
V  6   3466.029039 -18008.347264  23924.292910      0.076393                    
P  7   6143.887282 -25086.523086  -5113.100329    481.747485                    
V  7   2102.562886   6963.293818 -31308.820912      0.019011                    
P  8  20940.795375    416.313900  16364.108626     -2.972426                    
V  8  16051.124385  13221.637661 -20945.300522     -0.013181                    
P  9   3828.865204 -15506.733418 -21223.154655    -11.010492                    
V  9  22634.034618  14653.516975  -6641.336084      0.002560                    
P 11  13373.245157 -10845.724799  19660.278863   -600.116554                    
V 11   8464.804111  25141.256856   7996.535546     -0.022773                    
P 12 -23998.915790  11032.122946  -1369.422296    322.100698                    
V 12  -2284.430629  -1272.939976  32470.691193      0.034196                    
P 13 -22230.981192 -11210.891473   8952.809839   -143.893658                    
V 13  -7212.186226  -9348.819430 -29293.686309     -0.030267                    
P 14  11514.641558  20556.145793  12664.126915     39.307832                    
V 14 -13404.476460  -8248.861733  25947.907069     -0.026286                    
P 15 -21387.894765    639.607555  15843.293886   -268.005489                    
V 15 -16025.929631 -12583.095109 -20674.716219     -0.020699                    
P 16  21988.337358   1930.243878 -15121.468001    -93.601779                    
V 16 -17111.115895   7991.406122 -23634.853840      0.040838                    
P 17 -13000.775047 -20099.291897  12032.020080   -185.430897                    
V 17  12823.885468   7437.090525  26748.678785     -0.013784                    
P 18  -7495.188791  18704.467304  17670.558079    428.466893                    
V 18 -20374.956367   7761.263371 -17649.253774      0.032012                    
P 19  19896.445608    943.871554  17586.007027   -518.946104                    
V 19  16460.233159  15468.012558 -18787.348405     -0.006603                    
P 20 -23297.496027  12841.711805   -581.495784    349.886370                    
V 20  -1411.278230  -3600.969202 -30908.031975      0.031223                    
P 21  -2693.187716  26143.663564  -1509.506592   -474.740920                    
V 21  -3793.168696  -3013.818949 -31312.210193     -0.029106                    
P 22   6275.396903  14895.877625  21308.999283    384.879872                    
V 22 -23924.404704  11788.725578  -1385.438576      0.038220                    
P 23  16555.116064  -5910.247388 -19865.108933   -129.310182                    
V 23  20376.455505  15393.920529  11861.756417     -0.022491                    
P 24 -14083.691058  12410.637193  18696.201854     -3.584982                    
V 24   -161.967228 -23945.729804  15894.441921     -0.006258                    
P 25 -15954.419022  17021.389249 -12642.061034    -30.007376                    
V 25 -15206.242745   5098.332479  26422.442661     -0.049209                    
P 26  14130.780147   9146.092015 -20551.975779    -35.388464                    
V 26 -23098.672204  12151.820530 -10471.766918     -0.092437                    
P 27  23445.696565  11210.558628   5760.190246     14.592329                    
V 27   4687.145129   6113.127857 -30714.438098      0.029026                    
P 28   -820.365127 -15385.292957  22247.786955    462.987015                    
V 28  24977.537243  -9434.024578  -5847.444397      0.025669                    
P 29  -6622.971966  13609.364873 -21816.094746    630.145235                    
V 29 -22083.130852 -16702.261517  -3673.854130      0.023639                    
P 30   -320.917989 -25831.713824   5980.891960     12.641345                    
V 30   4067.392802  -7088.396852 -30455.320861      0.069624                    
P 31   8047.095437  20051.094664 -15085.422782    305.185949                    
V 31  -4155.143593  19150.717123  23367.472347     -0.013118                    
P 32  24873.141736  -3573.013454   7662.368211    -62.426979                    
V 32  -8050.510957   6807.938621  29698.087700      0.107707                    
EOF
